NORAD_CAT_ID,OBJECT_NAME,OBJECT_TYPE,EPOCH,MEAN_MOTION,ECCENTRICITY,INCLINATION,RA_OF_ASC_NODE,ARG_OF_PERICENTER,MEAN_ANOMALY,BSTAR,MEAN_MOTION_DOT,MEAN_MOTION_DDOT,TLE_LINE0,TLE_LINE1,TLE_LINE2,SEMIMAJOR_AXIS,PERIOD,APOGEE,PERIGEE,DECAYED
53579.0,STARLINK-4580,PAYLOAD,2023-03-16 12:32:01,15.08838201,0.0001354,53.2144,263.1776,87.2087,272.906,-0.0001045,-1.951e-05,0.0,0 STARLINK-4580,1 53579U 22101BE  23075.52224289 -.00001951  00000-0 -10450-3 0  9997,2 53579  53.2144 263.1776 0001354  87.2087 272.9060 15.08838201 32026,6917.886,95.438,540.688,538.814,0.0
53579.0,STARLINK-4580,PAYLOAD,2023-03-16 18:53:34,15.0883534,0.0001506,53.2122,261.9888,84.1757,275.9407,-5.9024e-05,-1.227e-05,0.0,0 STARLINK-4580,1 53579U 22101BE  23075.78720534 -.00001227  00000-0 -59024-4 0  9996,2 53579  53.2122 261.9888 0001506  84.1757 275.9407 15.08835340 32064,6917.895,95.438,540.801,538.718,0.0
53579.0,STARLINK-4580,PAYLOAD,2023-03-17 12:22:49,15.08841253,0.0001306,53.2143,258.7165,92.2272,267.8869,3.566e-05,2.8e-06,0.0,0 STARLINK-4580,1 53579U 22101BE  23076.51584519  .00000280  00000-0  35660-4 0  9995,2 53579  53.2143 258.7165 0001306  92.2272 267.8869 15.08841253 32173,6917.877,95.437,540.645,538.838,0.0
53579.0,STARLINK-4580,PAYLOAD,2023-03-17 18:44:21,15.08841718,0.0001215,53.2143,257.527,90.6567,269.4565,5.4107e-05,5.73e-06,0.0,0 STARLINK-4580,1 53579U 22101BE  23076.78080507  .00000573  00000-0  54107-4 0  9994,2 53579  53.2143 257.5270 0001215  90.6567 269.4565 15.08841718 32217,6917.875,95.437,540.581,538.9,0.0
53579.0,STARLINK-4580,PAYLOAD,2023-03-17 21:55:07,15.08846276,0.0001335,53.2137,256.932,93.6052,266.5093,0.00013224,1.818e-05,0.0,0 STARLINK-4580,1 53579U 22101BE  23076.91328249  .00001818  00000-0  13224-3 0  9994,2 53579  53.2137 256.9320 0001335  93.6052 266.5093 15.08846276 32234,6917.861,95.437,540.65,538.803,0.0
53579.0,STARLINK-4580,PAYLOAD,2023-03-18 20:10:31,15.08851521,0.0001232,53.2134,252.7695,89.5588,270.5546,0.00031897,4.794e-05,0.0,0 STARLINK-4580,1 53579U 22101BE  23077.84064094  .00004794  00000-0  31897-3 0  9994,2 53579  53.2134 252.7695 0001232  89.5588 270.5546 15.08851521 32376,6917.845,95.437,540.562,538.858,0.0
53579.0,STARLINK-4580,PAYLOAD,2023-03-18 21:45:54,15.08853629,0.0001235,53.2132,252.4719,89.7184,270.395,0.0003481,5.258e-05,0.0,0 STARLINK-4580,1 53579U 22101BE  23077.90687988  .00005258  00000-0  34810-3 0  9998,2 53579  53.2132 252.4719 0001235  89.7184 270.3950 15.08853629 32384,6917.839,95.437,540.558,538.849,0.0
53579.0,STARLINK-4580,PAYLOAD,2023-03-19 12:04:22,15.08843437,0.0001349,53.2129,249.7949,93.1079,267.0068,3.9436e-05,3.4e-06,0.0,0 STARLINK-4580,1 53579U 22101BE  23078.50304257  .00000340  00000-0  39436-4 0  9997,2 53579  53.2129 249.7949 0001349  93.1079 267.0068 15.08843437 32471,6917.87,95.437,540.668,538.802,0.0
53579.0,STARLINK-4580,PAYLOAD,2023-03-19 18:25:55,15.08849668,0.0001251,53.2139,248.6063,95.1191,264.9943,0.00015967,2.255e-05,0.0,0 STARLINK-4580,1 53579U 22101BE  23078.76799942  .00002255  00000-0  15967-3 0  9993,2 53579  53.2139 248.6063 0001251  95.1191 264.9943 15.08849668 32511,6917.851,95.437,540.581,538.85,0.0
53579.0,STARLINK-4580,PAYLOAD,2023-03-20 11:55:09,15.08837168,0.0001551,53.2141,245.3339,92.2141,267.9029,-6.1859e-05,-1.272e-05,0.0,0 STARLINK-4580,1 53579U 22101BE  23079.49664296 -.00001272  00000-0 -61859-4 0  9999,2 53579  53.2141 245.3339 0001551  92.2141 267.9029 15.08837168 32622,6917.889,95.438,540.827,538.681,0.0
53579.0,STARLINK-4580,PAYLOAD,2023-03-20 15:05:56,15.088367,0.0001553,53.2162,244.7421,102.2792,257.8374,-4.8667e-05,-1.062e-05,0.0,0 STARLINK-4580,1 53579U 22101BE  23079.62912453 -.00001062  00000-0 -48667-4 0  9994,2 53579  53.2162 244.7421 0001553 102.2792 257.8374 15.08836700 32640,6917.89,95.438,540.83,538.681,0.0
53579.0,STARLINK-4580,PAYLOAD,2023-03-20 18:16:42,15.08837628,0.000148,53.2163,244.1468,92.4239,267.6923,-8.6235e-06,-4.25e-06,0.0,0 STARLINK-4580,1 53579U 22101BE  23079.76160492 -.00000425  00000-0 -86235-5 0  9993,2 53579  53.2163 244.1468 0001480  92.4239 267.6923 15.08837628 32662,6917.888,95.438,540.776,538.729,0.0
53579.0,STARLINK-4580,PAYLOAD,2023-03-21 10:10:33,15.08844479,0.0001256,53.215,241.1719,89.1835,270.9301,0.00024338,3.588e-05,0.0,0 STARLINK-4580,1 53579U 22101BE  23080.42400322  .00003588  00000-0  24338-3 0  9992,2 53579  53.2150 241.1719 0001256  89.1835 270.9301 15.08844479 32760,6917.867,95.437,540.601,538.863,0.0
53579.0,STARLINK-4580,PAYLOAD,2023-03-22 17:58:16,15.08850743,0.0001186,53.215,235.2246,81.4921,278.6206,0.00031788,4.776e-05,0.0,0 STARLINK-4580,1 53579U 22101BE  23081.74880100  .00004776  00000-0  31788-3 0  9991,2 53579  53.2150 235.2246 0001186  81.4921 278.6206 15.08850743 32964,6917.848,95.437,540.533,538.892,0.0
53579.0,STARLINK-4580,PAYLOAD,2023-03-23 03:30:35,15.08842454,0.0001356,53.2161,233.4416,76.8691,283.2452,0.00012744,1.741e-05,0.0,0 STARLINK-4580,1 53579U 22101BE  23082.14624348  .00001741  00000-0  12744-3 0  9996,2 53579  53.2161 233.4416 0001356  76.8691 283.2452 15.08842454 33029,6917.873,95.437,540.676,538.8,0.0
53579.0,STARLINK-4580,PAYLOAD,2023-03-23 09:52:08,15.08831764,0.0001588,53.2158,232.2518,82.8563,277.261,-5.275e-05,-1.127e-05,0.0,0 STARLINK-4580,1 53579U 22101BE  23082.41120878 -.00001127  00000-0 -52750-4 0  9997,2 53579  53.2158 232.2518 0001588  82.8563 277.2610 15.08831764 33062,6917.906,95.438,540.869,538.672,0.0
53579.0,STARLINK-4580,PAYLOAD,2023-03-23 14:38:17,15.08839608,0.0001837,53.2153,231.3596,81.7369,278.3831,0.00016122,2.279e-05,0.0,0 STARLINK-4580,1 53579U 22101BE  23082.60992802  .00002279  00000-0  16122-3 0  9991,2 53579  53.2153 231.3596 0001837  81.7369 278.3831 15.08839608 33097,6917.882,95.438,541.017,538.476,0.0
53579.0,STARLINK-4580,PAYLOAD,2023-03-23 16:13:40,15.08841858,0.0001751,53.2148,231.062,92.1137,268.0055,0.00019718,2.852e-05,0.0,0 STARLINK-4580,1 53579U 22101BE  23082.67616627  .00002852  00000-0  19718-3 0  9997,2 53579  53.2148 231.0620 0001751  92.1137 268.0055 15.08841858 33106,6917.875,95.437,540.951,538.528,0.0
53579.0,STARLINK-4580,PAYLOAD,2023-03-24 03:21:22,15.08871996,0.0001021,53.214,228.981,80.7038,279.407,0.0011274,0.00017716,0.0,0 STARLINK-4580,1 53579U 22101BE  23083.13983926  .00017716  00000-0  11274-2 0  9991,2 53579  53.2140 228.9810 0001021  80.7038 279.4070 15.08871996 33173,6917.783,95.436,540.354,538.941,0.0
53579.0,STARLINK-4580,PAYLOAD,2023-03-24 12:53:39,15.08878132,9.45e-05,53.2162,227.1978,61.8468,298.2619,0.00090164,0.00014106,0.0,0 STARLINK-4580,1 53579U 22101BE  23083.53726783  .00014106  00000-0  90164-3 0  9997,2 53579  53.2162 227.1978 0000945  61.8468 298.2619 15.08878132 33238,6917.764,95.435,540.283,538.975,0.0
53579.0,STARLINK-4580,PAYLOAD,2023-03-24 16:04:25,15.08901283,8.35e-05,53.2152,226.6026,84.2775,275.8313,0.0015054,0.00023792,0.0,0 STARLINK-4580,1 53579U 22101BE  23083.66973758  .00023792  00000-0  15054-2 0  9992,2 53579  53.2152 226.6026 0000835  84.2775 275.8313 15.08901283 33251,6917.693,95.434,540.136,538.98,0.0
53579.0,STARLINK-4580,PAYLOAD,2023-03-24 20:50:33,15.08911428,9.75e-05,53.2154,225.7103,79.9047,280.2055,0.0014662,0.00023169,0.0,0 STARLINK-4580,1 53579U 22101BE  23083.86844818  .00023169  00000-0  14662-2 0  9990,2 53579  53.2154 225.7103 0000975  79.9047 280.2055 15.08911428 33285,6917.662,95.433,540.202,538.853,0.0
53579.0,STARLINK-4580,PAYLOAD,2023-03-25 12:44:28,15.08795888,8.63e-05,53.2158,222.738,94.6392,265.4699,-0.0013287,-0.00021346,0.0,0 STARLINK-4580,1 53579U 22101BE  23084.53088245 -.00021346  00000-0 -13287-2 0  9998,2 53579  53.2158 222.7380 0000863  94.6392 265.4699 15.08795888 33386,6918.015,95.44,540.477,539.283,0.0
53579.0,STARLINK-4580,PAYLOAD,2023-03-25 20:41:25,15.08784739,0.000103,53.2152,221.2489,108.5499,251.5605,-0.0010388,-0.00016757,0.0,0 STARLINK-4580,1 53579U 22101BE  23084.86209997 -.00016757  00000-0 -10388-2 0  9992,2 53579  53.2152 221.2489 0001030 108.5499 251.5605 15.08784739 33436,6918.049,95.441,540.627,539.202,0.0
53579.0,STARLINK-4580,PAYLOAD,2023-03-26 12:35:17,15.08805733,0.0001106,53.2156,218.2741,89.6024,270.5095,9.832e-05,1.276e-05,0.0,0 STARLINK-4580,1 53579U 22101BE  23085.52451257  .00001276  00000-0  98320-4 0  9996,2 53579  53.2156 218.2741 0001106  89.6024 270.5095 15.08805733 33537,6917.985,95.44,540.615,539.085,0.0
53579.0,STARLINK-4580,PAYLOAD,2023-03-26 15:46:03,15.0882511,0.0001599,53.2157,217.6807,125.4637,234.6505,7.7058e-05,9.38e-06,0.0,0 STARLINK-4580,1 53579U 22101BE  23085.65698013  .00000938  00000-0  77058-4 0  9992,2 53579  53.2157 217.6807 0001599 125.4637 234.6505 15.08825110 33559,6917.926,95.438,540.897,538.685,0.0
53579.0,STARLINK-4580,PAYLOAD,2023-03-26 20:32:12,15.08832507,0.0001168,53.2153,216.7875,108.1522,251.9598,0.00043843,6.695e-05,0.0,0 STARLINK-4580,1 53579U 22101BE  23085.85570231  .00006695  00000-0  43843-3 0  9995,2 53579  53.2153 216.7875 0001168 108.1522 251.9598 15.08832507 33588,6917.903,95.438,540.576,538.96,0.0
53579.0,STARLINK-4580,PAYLOAD,2023-03-27 14:01:27,15.0886339,0.0001186,53.2151,213.5153,111.0471,249.0648,0.0011512,0.00018093,0.0,0 STARLINK-4580,1 53579U 22101BE  23086.58434591  .00018093  00000-0  11512-2 0  9996,2 53579  53.2151 213.5153 0001186 111.0471 249.0648 15.08863390 33696,6917.809,95.436,540.494,538.853,0.0
53579.0,STARLINK-4580,PAYLOAD,2023-03-27 18:47:35,15.08898912,0.0001193,53.2152,212.6236,102.8231,257.2894,0.0016623,0.00026309,0.0,0 STARLINK-4580,1 53579U 22101BE  23086.78305469  .00026309  00000-0  16623-2 0  9996,2 53579  53.2152 212.6236 0001193 102.8231 257.2894 15.08898912 33725,6917.7,95.434,540.391,538.74,0.0
53579.0,STARLINK-4580,PAYLOAD,2023-03-28 05:55:17,15.08857261,0.0001174,53.2147,210.5422,127.4011,232.7088,0.00023587,3.47e-05,0.0,0 STARLINK-4580,1 53579U 22101BE  23087.24673289  .00003470  00000-0  23587-3 0  9998,2 53579  53.2147 210.5422 0001174 127.4011 232.7088 15.08857261 33793,6917.828,95.436,540.505,538.88,0.0
